API VERSION: 1.2
API SOURCE: NASA/JPL Horizons API



*******************************************************************************
Ephemeris / API_USER Mon Apr 13 11:59:52 2026 Pasadena, USA      / Horizons
*******************************************************************************
Target body name: Mercury (199)                   {source: DE441}
Center body name: Sun (10)                        {source: DE441}
Center-site name: BODY CENTER
*******************************************************************************
Start time      : A.D. 1900-Jan-01 00:00:00.0000 TDB
Stop  time      : A.D. 1999-Dec-18 00:00:00.0000 TDB
Step-size       : 43200 minutes
*******************************************************************************
Center geodetic : 0.0, 0.0, 0.0                   {E-lon(deg),Lat(deg),Alt(km)}
Center cylindric: 0.0, 0.0, 0.0                   {E-lon(deg),Dxy(km),Dz(km)}
Center radii    : 695700.0, 695700.0, 695700.0 km {Equator_a, b, pole_c}
Output units    : AU-D
Calendar mode   : Mixed Julian/Gregorian
Output type     : GEOMETRIC cartesian states
Output format   : 3 (position, velocity, LT, range, range-rate)
Reference frame : Ecliptic of J2000.0
*******************************************************************************
            JDTDB,            Calendar Date (TDB),                      X,                      Y,                      Z,                     VX,                     VY,                     VZ,                     LT,                     RG,                     RR,
**************************************************************************************************************************************************************************************************************************************************************************
$$SOE
2415020.500000000, A.D. 1900-Jan-01 00:00:00.0000, -3.873786086579065E-01, -1.626546484088456E-01,  2.239016479422692E-02,  5.080088572356584E-03, -2.470280930917782E-02, -2.482303035708166E-03,  2.429977121103597E-03,  4.207374960402903E-01,  4.740556676334209E-03,
2415050.500000000, A.D. 1900-Jan-31 00:00:00.0000,  1.501855137174329E-01, -4.198023543075506E-01, -4.806187486259612E-02,  2.085654206526894E-02,  1.091986342114218E-02, -1.029118682412778E-03,  2.589981267367368E-03,  4.484413551714865E-01, -3.127214961255236E-03,
2415080.500000000, A.D. 1900-Mar-02 00:00:00.0000,  1.473701983914774E-01,  2.719768957721840E-01,  8.617335934138881E-03, -3.034723490654753E-02,  1.453404282157783E-02,  3.978644902772547E-03,  1.787274864056942E-03,  3.094570498250422E-01, -1.567483629028157E-03,
2415110.500000000, A.D. 1900-Apr-01 00:00:00.0000, -3.739862260867945E-01, -2.113949475836770E-01,  1.718213172479182E-02,  8.057146952057588E-03, -2.324253841526232E-02, -2.637227047606542E-03,  2.483128656688594E-03,  4.299403991452264E-01,  4.314039875170156E-03,
2415140.500000000, A.D. 1900-May-01 00:00:00.0000,  1.914183054804328E-01, -3.947944269531107E-01, -4.981751331601410E-02,  1.968972490410255E-02,  1.369895354025006E-02, -6.950534747211032E-04,  2.550304307584755E-03,  4.415715025442953E-01, -3.634000136518989E-03,
2415170.500000000, A.D. 1900-May-31 00:00:00.0000,  8.310903705237067E-02,  2.956635178025649E-01,  1.646409289943694E-02, -3.271729132241557E-02,  8.691244682021952E-03,  3.720258032142534E-03,  1.776336638280534E-03,  3.075631547408779E-01, -2.866660872353389E-04,
2415200.500000000, A.D. 1900-Jun-30 00:00:00.0000, -3.548490940356419E-01, -2.568956639897472E-01,  1.170965217045036E-02,  1.073790273890449E-02, -2.152213410369765E-02, -2.743657712436594E-03,  2.531037323257737E-03,  4.382355276202533E-01,  3.848342930965388E-03,
2415230.500000000, A.D. 1900-Jul-30 00:00:00.0000,  2.299360434888869E-01, -3.641925414945780E-01, -5.086675157377019E-02,  1.817663059588636E-02,  1.642142655397101E-02, -3.337254825190403E-04,  2.504832497732811E-03,  4.336983027304475E-01, -4.113742216731320E-03,
2415260.500000000, A.D. 1900-Aug-29 00:00:00.0000,  1.539833599205432E-02,  3.070175804911975E-01,  2.362261192282254E-02, -3.373704915855161E-02,  2.454817620466459E-03,  3.305446557661337E-03,  1.780648887612131E-03,  3.083097975673972E-01,  1.012815783948424E-03,
2415290.500000000, A.D. 1900-Sep-28 00:00:00.0000, -3.305706521103355E-01, -2.986636493898481E-01,  6.067883131912853E-03,  1.312694156554242E-02, -1.958775137527433E-02, -2.805781618506299E-03,  2.573275375553468E-03,  4.455488196698731E-01,  3.352590007301186E-03,
2415320.500000000, A.D. 1900-Oct-28 00:00:00.0000,  2.650007527760183E-01, -3.281573643164117E-01, -5.115521442764833E-02,  1.629388992795694E-02,  1.905167393655683E-02,  5.410542263900451E-05,  2.453946381251046E-03,  4.248876447839937E-01, -4.558432815243288E-03,
2415350.500000000, A.D. 1900-Nov-27 00:00:00.0000, -5.295401170676524E-02,  3.056534303171554E-01,  2.980263999421700E-02, -3.335992573917767E-02, -3.759666580726246E-03,  2.763876330134430E-03,  1.799853385990081E-03,  3.116349533847403E-01,  2.245440424884267E-03,
2415380.500000000, A.D. 1900-Dec-27 00:00:00.0000, -3.017282893306326E-01, -3.363236773144507E-01,  3.414567598445987E-04,  1.523194454822131E-02, -1.747531417826625E-02, -2.827240438609701E-03,  2.609573821212450E-03,  4.518337007101434E-01,  2.833980671592207E-03,
2415410.500000000, A.D. 1901-Jan-26 00:00:00.0000,  2.958425915189912E-01, -2.869137155912782E-01, -5.063008406396701E-02,  1.401628877897851E-02,  2.154581398327423E-02,  4.671721492807078E-04,  2.398097341702812E-03,  4.152176833462056E-01, -4.958428788790188E-03,
2415440.500000000, A.D. 1901-Feb-25 00:00:00.0000, -1.192111420208914E-01,  2.920212822386632E-01,  3.478924920694104E-02, -3.169413320124947E-02, -9.565168838919620E-03,  2.137043890986339E-03,  1.832742398523448E-03,  3.173295093788487E-01,  3.338507974489991E-03,
2415470.500000000, A.D. 1901-Mar-27 00:00:00.0000, -2.688868649370993E-01, -3.695449726202159E-01, -5.391066241502719E-03,  1.706061451626844E-02, -1.521444355952760E-02, -2.811154796346445E-03,  2.639687979055260E-03,  4.570478055081309E-01,  2.297792674033955E-03,
2415500.500000000, A.D. 1901-Apr-26 00:00:00.0000,  3.216433465019866E-01, -2.407778310409551E-01, -4.924196787652811E-02,  1.131881768523523E-02,  2.384721716009494E-02,  9.031627518387469E-04,  2.337859463693169E-03,  4.047878180851504E-01, -5.300881698488574E-03,
2415530.500000000, A.D. 1901-May-26 00:00:00.0000, -1.809736146046955E-01,  2.672740317945310E-01,  3.845556166032834E-02, -2.896540172779192E-02, -1.466470021480952E-02,  1.469958167196877E-03,  1.877404947941486E-03,  3.250625900921300E-01,  4.242284429688553E-03,
2415560.500000000, A.D. 1901-Jun-25 00:00:00.0000, -2.326051168272066E-01, -3.980455677852698E-01, -1.105507509741445E-02,  1.861937436035839E-02, -1.282978973665245E-02, -2.760122946223733E-03,  2.663432294602326E-03,  4.611590063016288E-01,  1.748621510976103E-03,
2415590.500000000, A.D. 1901-Jul-25 00:00:00.0000,  3.415250818568754E-01, -1.902198463096163E-01, -4.694807083680022E-02,  8.181047679706920E-03,  2.588229049668790E-02,  1.357955093427440E-03,  2.274022555796914E-03,  3.937348001163939E-01, -5.569854920634495E-03,
2415620.500000000, A.D. 1901-Aug-24 00:00:00.0000, -2.363450590891302E-01,  2.330553724650161E-01,  4.076094210274277E-02, -2.545915669862885E-02, -1.888024260807754E-02,  8.033956147866149E-04,  1.931435987762198E-03,  3.344177746348944E-01,  4.933203939241975E-03,
2415650.500000000, A.D. 1901-Sep-23 00:00:00.0000, -1.934296436769548E-01, -4.215906823684000E-01, -1.658140138757596E-02,  1.991323273649371E-02, -1.034190164630749E-02, -2.676280831047282E-03,  2.680666087202077E-03,  4.641429449908968E-01,  1.190616709845095E-03,
2415680.500000000, A.D. 1901-Oct-23 00:00:00.0000,  3.545767566804467E-01, -1.358817090077186E-01, -4.371701322102121E-02,  4.591615709911257E-03,  2.755898725223223E-02,  1.825097713004720E-03,  2.207575764142652E-03,  3.822298947830349E-01, -5.746462877027948E-03,
2415710.500000000, A.D. 1901-Nov-22 00:00:00.0000, -2.840375018761512E-01,  1.912469124576698E-01,  4.174028742597607E-02, -2.146122369766655E-02, -2.214952036106006E-02,  1.687368106288986E-04,  1.992302159836784E-03,  3.449564256410356E-01,  5.411721507507282E-03,
2415740.500000000, A.D. 1901-Dec-22 00:00:00.0000, -1.519014574088187E-01, -4.399876065221423E-01, -2.190460216788192E-02,  2.094549024596110E-02, -7.767799976539654E-03, -2.561317340337832E-03,  2.691310722723468E-03,  4.659860064981993E-01,  6.270357015188043E-04,
2415770.500000000, A.D. 1902-Jan-21 00:00:00.0000,  3.598782754016630E-01, -7.860576124546431E-02, -3.953332966782153E-02,  5.552173428804446E-04,  2.876541495701389E-02,  2.295005044065672E-03,  2.139703840392161E-03,  3.704782354763621E-01, -5.808832113006821E-03,
2415800.500000000, A.D. 1902-Feb-20 00:00:00.0000, -3.233287176106180E-01,  1.437372405681606E-01,  4.148147683355761E-02, -1.721806887691553E-02, -2.449772616374301E-02, -4.133369263728779E-04,  2.057597340829471E-03,  3.562619357694125E-01,  5.694447093306136E-03,
2415830.500000000, A.D. 1902-Mar-22 00:00:00.0000, -1.085420303136728E-01, -4.530845913193576E-01, -2.696394069639375E-02,  2.171739196264954E-02, -5.121041417307699E-03, -2.416481079773472E-03,  2.695342723918655E-03,  4.666841258640818E-01,  6.036844176636579E-05,
2415860.500000000, A.D. 1902-Apr-21 00:00:00.0000,  3.565471514753690E-01, -1.946357778569938E-02, -3.440291568715821E-02, -3.897745151707318E-03,  2.936927992815662E-02,  2.754115959884661E-03,  2.071860141803670E-03,  3.587314632049960E-01, -5.731615499238885E-03,
2415890.500000000, A.D. 1902-May-21 00:00:00.0000, -3.539328325110941E-01,  9.232024324350348E-02,  4.010451045074652E-02, -1.292301330612822E-02, -2.600101585158274E-02, -9.312727874685869E-04,  2.125201220479026E-03,  3.679671846786882E-01,  5.805165367254016E-03,
